NORAD_CAT_ID,OBJECT_NAME,OBJECT_TYPE,EPOCH,MEAN_MOTION,ECCENTRICITY,INCLINATION,RA_OF_ASC_NODE,ARG_OF_PERICENTER,MEAN_ANOMALY,BSTAR,MEAN_MOTION_DOT,MEAN_MOTION_DDOT,TLE_LINE0,TLE_LINE1,TLE_LINE2,SEMIMAJOR_AXIS,PERIOD,APOGEE,PERIGEE,DECAYED
55768.0,STARLINK-5583,PAYLOAD,2023-06-10 06:00:02,15.57543163,0.0003289,69.9995,238.4513,269.1709,261.1332,-0.014328,-0.00958514,0.0,0 STARLINK-5583,1 55768U 23028AD  23161.25002315 -.00958514  00000-0 -14328-1 0  9990,2 55768  69.9995 238.4513 0003289 269.1709 261.1332 15.57543163 16119,6772.907,92.453,397.0,392.544,0.0
55768.0,STARLINK-5583,PAYLOAD,2023-06-10 14:00:01,15.56834357,0.0003259,69.9995,237.5316,274.4208,323.8888,-0.013201,-0.00868286,0.0,0 STARLINK-5583,1 55768U 23028AD  23161.58334491 -.00868286  00000-0 -13201-1 0  9994,2 55768  69.9995 237.5316 0003259 274.4208 323.8888 15.56834357  1304,6774.963,92.495,399.036,394.62,0.0
55768.0,STARLINK-5583,PAYLOAD,2023-06-10 22:00:00,15.56187898,0.0003285,69.9992,236.613,271.3608,34.2209,-0.013968,-0.00894361,0.0,0 STARLINK-5583,1 55768U 23028AD  23161.91667824 -.00894361  00000-0 -13968-1 0  9993,2 55768  69.9992 236.6130 0003285 271.3608  34.2209 15.56187898 16222,6776.839,92.534,400.93,396.478,0.0
55768.0,STARLINK-5583,PAYLOAD,2023-06-11 14:00:01,15.54884053,0.0003274,69.9995,234.7784,276.7224,161.0453,-0.014371,-0.00878308,0.0,0 STARLINK-5583,1 55768U 23028AD  23162.58334491 -.00878308  00000-0 -14371-1 0  9990,2 55768  69.9995 234.7784 0003274 276.7224 161.0453 15.54884053  1308,6780.627,92.611,404.712,400.272,0.0
55768.0,STARLINK-5583,PAYLOAD,2023-06-11 22:00:00,15.54223067,0.0003169,69.9995,233.8624,270.0863,232.6106,-0.014696,-0.00876736,0.0,0 STARLINK-5583,1 55768U 23028AD  23162.91667824 -.00876736  00000-0 -14696-1 0  9999,2 55768  69.9995 233.8624 0003169 270.0863 232.6106 15.54223067 16375,6782.549,92.651,406.563,402.265,0.0
55768.0,STARLINK-5583,PAYLOAD,2023-06-12 14:00:01,15.52929463,0.0003269,69.9999,232.0334,271.3,358.9526,-0.015517,-0.00882535,0.0,0 STARLINK-5583,1 55768U 23028AD  23163.58335648 -.00882535  00000-0 -15517-1 0  9996,2 55768  69.9999 232.0334 0003269 271.3000 358.9526 15.52929463 16487,6786.315,92.728,410.399,405.962,0.0
55768.0,STARLINK-5583,PAYLOAD,2023-06-13 00:00:00,15.52087174,0.0003325,69.9997,230.8919,267.9725,170.3204,-0.01507,-0.00835627,0.0,0 STARLINK-5583,1 55768U 23028AD  23164.00001157 -.00835627  00000-0 -15070-1 0  9993,2 55768  69.9997 230.8919 0003325 267.9725 170.3204 15.52087174  1306,6788.77,92.778,412.892,408.378,0.0
55768.0,STARLINK-5583,PAYLOAD,2023-06-13 14:00:01,15.5114024,0.0003176,70.0001,229.296,272.2634,183.3462,0.0013827,0.0008165,0.0,0 STARLINK-5583,1 55768U 23028AD  23164.58334491  .00081650  00000-0  13827-2 0  9992,2 55768  70.0001 229.2960 0003176 272.2634 183.3462 15.51140240 16630,6791.533,92.835,415.555,411.241,0.0
55768.0,STARLINK-5583,PAYLOAD,2023-06-13 22:00:00,15.51173728,0.0003139,69.9998,228.3847,268.418,248.047,0.00064808,0.00038017,0.0,0 STARLINK-5583,1 55768U 23028AD  23164.91667824  .00038017  00000-0  64808-3 0  9993,2 55768  69.9998 228.3847 0003139 268.4180 248.0470 15.51173728  1301,6791.435,92.833,415.432,411.168,0.0
55768.0,STARLINK-5583,PAYLOAD,2023-06-14 06:00:00,15.51238549,0.0003164,70.0,227.4739,266.3437,310.9815,-8.3954e-05,-5.095e-05,0.0,0 STARLINK-5583,1 55768U 23028AD  23165.25001157 -.00005095  00000-0 -83954-4 0  9998,2 55768  70.0000 227.4739 0003164 266.3437 310.9815 15.51238549 16736,6791.246,92.829,415.26,410.962,0.0
55768.0,STARLINK-5583,PAYLOAD,2023-06-14 14:00:01,15.51444626,0.0003354,69.9997,226.5625,271.4431,6.7718,-0.011643,-0.00636753,0.0,0 STARLINK-5583,1 55768U 23028AD  23165.58334491 -.00636753  00000-0 -11643-1 0  9998,2 55768  69.9997 226.5625 0003354 271.4431   6.7718 15.51444626 16797,6790.644,92.817,414.787,410.232,0.0
55768.0,STARLINK-5583,PAYLOAD,2023-06-14 22:00:00,15.50862268,0.0003356,69.9997,225.6512,269.2203,69.9544,-0.016576,-0.00875793,0.0,0 STARLINK-5583,1 55768U 23028AD  23165.91667824 -.00875793  00000-0 -16576-1 0  9993,2 55768  69.9997 225.6512 0003356 269.2203  69.9544 15.50862268 16845,6792.344,92.852,416.489,411.93,0.0
55768.0,STARLINK-5583,PAYLOAD,2023-06-15 14:00:01,15.49552183,0.000359,69.9998,223.8312,275.4476,183.1607,-0.017053,-0.00861397,0.0,0 STARLINK-5583,1 55768U 23028AD  23166.58334491 -.00861397  00000-0 -17053-1 0  9994,2 55768  69.9998 223.8312 0003590 275.4476 183.1607 15.49552183 16945,6796.172,92.93,420.477,415.597,0.0
55768.0,STARLINK-5583,PAYLOAD,2023-06-15 20:00:01,15.49091883,0.0003625,69.9994,223.1496,271.8204,140.7595,-0.018579,-0.00930446,0.0,0 STARLINK-5583,1 55768U 23028AD  23166.83334491 -.00930446  00000-0 -18579-1 0  9998,2 55768  69.9994 223.1496 0003625 271.8204 140.7595 15.49091883  1309,6797.518,92.958,421.847,416.919,0.0
55768.0,STARLINK-5583,PAYLOAD,2023-06-16 06:00:00,15.48293698,0.0003522,69.9998,222.0148,266.9915,307.906,-0.019609,-0.00952854,0.0,0 STARLINK-5583,1 55768U 23028AD  23167.25001157 -.00952854  00000-0 -19609-1 0  9997,2 55768  69.9998 222.0148 0003522 266.9915 307.9060 15.48293698 17044,6799.854,93.006,424.114,419.324,0.0
55768.0,STARLINK-5583,PAYLOAD,2023-06-16 14:00:01,15.47602356,0.0003563,69.9995,221.1078,272.1073,359.7774,-0.018451,-0.00869504,0.0,0 STARLINK-5583,1 55768U 23028AD  23167.58334491 -.00869504  00000-0 -18451-1 0  9996,2 55768  69.9995 221.1078 0003563 272.1073 359.7774 15.47602356  1305,6801.879,93.047,426.168,421.321,0.0
55768.0,STARLINK-5583,PAYLOAD,2023-06-16 22:00:00,15.4693325,0.0003536,69.9992,220.2019,268.3184,59.7699,-0.018477,-0.0085228,0.0,0 STARLINK-5583,1 55768U 23028AD  23167.91667824 -.00852280  00000-0 -18477-1 0  9993,2 55768  69.9992 220.2019 0003536 268.3184  59.7699 15.46933250 17159,6803.841,93.087,428.111,423.3,0.0
55768.0,STARLINK-5583,PAYLOAD,2023-06-17 14:00:01,15.45654608,0.0003506,69.9988,218.3928,276.02,162.0995,-0.019989,-0.00891329,0.0,0 STARLINK-5583,1 55768U 23028AD  23168.58334491 -.00891329  00000-0 -19989-1 0  9994,2 55768  69.9988 218.3928 0003506 276.0200 162.0995 15.45654608 17257,6807.592,93.164,431.844,427.071,0.0
55768.0,STARLINK-5583,PAYLOAD,2023-06-17 22:00:01,15.44969195,0.0003346,69.9989,217.4896,270.403,221.6439,-0.019369,-0.00836325,0.0,0 STARLINK-5583,1 55768U 23028AD  23168.91668981 -.00836325  00000-0 -19369-1 0  9992,2 55768  69.9989 217.4896 0003346 270.4030 221.6439 15.44969195  1306,6809.606,93.206,433.749,429.192,0.0
55768.0,STARLINK-5583,PAYLOAD,2023-06-18 06:00:00,15.44384842,0.0003314,69.9991,216.5874,269.2925,275.7377,-0.022828,-0.00967652,0.0,0 STARLINK-5583,1 55768U 23028AD  23169.25001157 -.00967652  00000-0 -22828-1 0  9998,2 55768  69.9991 216.5874 0003314 269.2925 275.7377 15.44384842 17352,6811.323,93.241,435.445,430.931,0.0
55768.0,STARLINK-5583,PAYLOAD,2023-06-18 14:00:01,15.4370164,0.0003343,69.9986,215.6858,273.3768,324.0049,-0.021552,-0.0089838,0.0,0 STARLINK-5583,1 55768U 23028AD  23169.58335648 -.00898380  00000-0 -21552-1 0  9993,2 55768  69.9986 215.6858 0003343 273.3768 324.0049 15.43701640  1301,6813.333,93.282,437.475,432.92,0.0
55768.0,STARLINK-5583,PAYLOAD,2023-06-18 22:00:00,15.43012771,0.0003342,69.9985,214.7852,267.8162,21.018,-0.020704,-0.00836406,0.0,0 STARLINK-5583,1 55768U 23028AD  23169.91667824 -.00836406  00000-0 -20704-1 0  9993,2 55768  69.9985 214.7852 0003342 267.8162  21.0180 15.43012771 17463,6815.36,93.324,439.503,434.948,0.0
55768.0,STARLINK-5583,PAYLOAD,2023-06-19 04:00:00,15.42600168,0.0003268,69.9987,214.1104,265.97,330.9503,-0.024249,-0.00967551,0.0,0 STARLINK-5583,1 55768U 23028AD  23170.16667824 -.00967551  00000-0 -24249-1 0  9996,2 55768  69.9987 214.1104 0003268 265.9700 330.9503 15.42600168 17501,6816.576,93.349,440.668,436.213,0.0
55768.0,STARLINK-5583,PAYLOAD,2023-06-19 12:19:50,15.43549945,0.000362,69.9966,213.1765,262.085,97.9921,-0.0059695,-0.0026024,0.0,0 STARLINK-5583,1 55768U 23028AD  23170.51378237 -.00260240  00000-0 -59695-2 0  9997,2 55768  69.9966 213.1765 0003620 262.0850  97.9921 15.43549945 17562,6813.779,93.291,438.111,433.178,0.0
55768.0,STARLINK-5583,PAYLOAD,2023-06-19 22:00:00,15.41051247,0.0003265,69.9983,212.0885,269.1061,169.5399,-0.021812,-0.0083653,0.0,0 STARLINK-5583,1 55768U 23028AD  23170.91667824 -.00836530  00000-0 -21812-1 0  9994,2 55768  69.9983 212.0885 0003265 269.1061 169.5399 15.41051247 17611,6821.142,93.443,445.235,440.78,0.0
55768.0,STARLINK-5583,PAYLOAD,2023-06-20 04:00:00,15.40646349,0.0003365,69.9985,211.4156,267.8611,117.1101,-0.026098,-0.00974787,0.0,0 STARLINK-5583,1 55768U 23028AD  23171.16667824 -.00974787  00000-0 -26098-1 0  9990,2 55768  69.9985 211.4156 0003365 267.8611 117.1101 15.40646349 17650,6822.338,93.467,446.498,441.907,0.0
55768.0,STARLINK-5583,PAYLOAD,2023-06-20 14:00:01,15.39796232,0.0003085,69.9982,210.2951,274.7904,259.8024,-0.025125,-0.00917271,0.0,0 STARLINK-5583,1 55768U 23028AD  23171.58334491 -.00917271  00000-0 -25125-1 0  9992,2 55768  69.9982 210.2951 0003085 274.7904 259.8024 15.39796232  1306,6824.848,93.519,448.819,444.608,0.0
55768.0,STARLINK-5583,PAYLOAD,2023-06-20 22:00:00,15.39100132,0.0003139,69.9982,209.3998,266.7276,314.686,-0.023404,-0.00841093,0.0,0 STARLINK-5583,1 55768U 23028AD  23171.91667824 -.00841093  00000-0 -23404-1 0  9994,2 55768  69.9982 209.3998 0003139 266.7276 314.6860 15.39100132 17762,6826.906,93.561,450.914,446.628,0.0
55768.0,STARLINK-5583,PAYLOAD,2023-06-21 06:00:00,15.38498987,0.0003223,69.9983,208.5056,268.0696,359.3605,-0.027038,-0.00943558,0.0,0 STARLINK-5583,1 55768U 23028AD  23172.25001157 -.00943558  00000-0 -27038-1 0  9999,2 55768  69.9983 208.5056 0003223 268.0696 359.3605 15.38498987 17821,6828.684,93.598,452.75,448.348,0.0
55768.0,STARLINK-5583,PAYLOAD,2023-06-21 14:00:01,15.37843599,0.000327,69.998,207.6119,273.6623,39.0068,-0.027015,-0.0092446,0.0,0 STARLINK-5583,1 55768U 23028AD  23172.58334491 -.00924460  00000-0 -27015-1 0  9991,2 55768  69.9980 207.6119 0003270 273.6623  39.0068 15.37843599  1305,6830.624,93.638,454.723,450.256,0.0
